[{"OBJECT_NAME":"COSMOS 2361","OBJECT_ID":"1998-076A","EPOCH":"2026-03-05T07:55:01.281216","MEAN_MOTION":13.73227007,"ECCENTRICITY":0.00322953,"INCLINATION":82.9311,"RA_OF_ASC_NODE":283.0154,"ARG_OF_PERICENTER":37.9455,"MEAN_ANOMALY":135.6271,"EPHEMERIS_TYPE":0,"CLASSIFICATION_TYPE":"U","NORAD_CAT_ID":25590,"ELEMENT_SET_NO":999,"REV_AT_EPOCH":36244,"BSTAR":6.8008385e-5,"MEAN_MOTION_DOT":7.8e-7,"MEAN_MOTION_DDOT":0},{"OBJECT_NAME":"COSMOS 2378","OBJECT_ID":"2001-023A","EPOCH":"2026-03-05T04:12:24.145344","MEAN_MOTION":13.74150627,"ECCENTRICITY":0.0032588,"INCLINATION":82.9258,"RA_OF_ASC_NODE":298.6155,"ARG_OF_PERICENTER":339.7605,"MEAN_ANOMALY":136.4451,"EPHEMERIS_TYPE":0,"CLASSIFICATION_TYPE":"U","NORAD_CAT_ID":26818,"ELEMENT_SET_NO":999,"REV_AT_EPOCH":24055,"BSTAR":7.0256359e-5,"MEAN_MOTION_DOT":8.1e-7,"MEAN_MOTION_DDOT":0},{"OBJECT_NAME":"COSMOS 2389","OBJECT_ID":"2002-026A","EPOCH":"2026-03-05T05:31:09.282720","MEAN_MOTION":13.75163971,"ECCENTRICITY":0.00461568,"INCLINATION":82.9466,"RA_OF_ASC_NODE":245.9172,"ARG_OF_PERICENTER":188.1875,"MEAN_ANOMALY":345.7746,"EPHEMERIS_TYPE":0,"CLASSIFICATION_TYPE":"U","NORAD_CAT_ID":27436,"ELEMENT_SET_NO":999,"REV_AT_EPOCH":19282,"BSTAR":4.9664709e-5,"MEAN_MOTION_DOT":6.3e-7,"MEAN_MOTION_DDOT":0},{"OBJECT_NAME":"COSMOS 2398","OBJECT_ID":"2003-023A","EPOCH":"2026-03-04T12:13:19.898112","MEAN_MOTION":13.72394835,"ECCENTRICITY":0.00302399,"INCLINATION":82.9484,"RA_OF_ASC_NODE":212.4348,"ARG_OF_PERICENTER":244.6243,"MEAN_ANOMALY":182.0487,"EPHEMERIS_TYPE":0,"CLASSIFICATION_TYPE":"U","NORAD_CAT_ID":27818,"ELEMENT_SET_NO":999,"REV_AT_EPOCH":13938,"BSTAR":4.5365703e-5,"MEAN_MOTION_DOT":5.6e-7,"MEAN_MOTION_DDOT":0},{"OBJECT_NAME":"COSMOS 2407","OBJECT_ID":"2004-028A","EPOCH":"2026-03-05T05:51:54.014688","MEAN_MOTION":13.76324457,"ECCENTRICITY":0.00393722,"INCLINATION":82.9638,"RA_OF_ASC_NODE":151.8163,"ARG_OF_PERICENTER":181.1184,"MEAN_ANOMALY":196.3762,"EPHEMERIS_TYPE":0,"CLASSIFICATION_TYPE":"U","NORAD_CAT_ID":28380,"ELEMENT_SET_NO":999,"REV_AT_EPOCH":8558,"BSTAR":7.9091813e-5,"MEAN_MOTION_DOT":9.3e-7,"MEAN_MOTION_DDOT":0},{"OBJECT_NAME":"COSMOS 2414","OBJECT_ID":"2005-002A","EPOCH":"2026-03-05T05:17:33.628704","MEAN_MOTION":13.87914834,"ECCENTRICITY":0.00386833,"INCLINATION":82.949,"RA_OF_ASC_NODE":122.299,"ARG_OF_PERICENTER":265.5865,"MEAN_ANOMALY":94.0878,"EPHEMERIS_TYPE":0,"CLASSIFICATION_TYPE":"U","NORAD_CAT_ID":28521,"ELEMENT_SET_NO":999,"REV_AT_EPOCH":6939,"BSTAR":8.830814e-5,"MEAN_MOTION_DOT":1.21e-6,"MEAN_MOTION_DDOT":0},{"OBJECT_NAME":"COSMOS 2429","OBJECT_ID":"2007-038A","EPOCH":"2026-03-05T07:16:37.197984","MEAN_MOTION":13.75157781,"ECCENTRICITY":0.00386828,"INCLINATION":82.9774,"RA_OF_ASC_NODE":282.4561,"ARG_OF_PERICENTER":163.7014,"MEAN_ANOMALY":196.5397,"EPHEMERIS_TYPE":0,"CLASSIFICATION_TYPE":"U","NORAD_CAT_ID":32052,"ELEMENT_SET_NO":999,"REV_AT_EPOCH":92737,"BSTAR":6.1068817e-5,"MEAN_MOTION_DOT":7.4e-7,"MEAN_MOTION_DDOT":0},{"OBJECT_NAME":"COSMOS 2454","OBJECT_ID":"2009-039A","EPOCH":"2026-03-05T04:10:49.152000","MEAN_MOTION":13.89940637,"ECCENTRICITY":0.00188875,"INCLINATION":82.9533,"RA_OF_ASC_NODE":106.1577,"ARG_OF_PERICENTER":192.5025,"MEAN_ANOMALY":226.3676,"EPHEMERIS_TYPE":0,"CLASSIFICATION_TYPE":"U","NORAD_CAT_ID":35635,"ELEMENT_SET_NO":999,"REV_AT_EPOCH":84295,"BSTAR":5.8579142e-5,"MEAN_MOTION_DOT":8.8e-7,"MEAN_MOTION_DDOT":0},{"OBJECT_NAME":"COSMOS 2463","OBJECT_ID":"2010-017A","EPOCH":"2026-03-05T06:05:49.279776","MEAN_MOTION":13.7165749,"ECCENTRICITY":0.00373472,"INCLINATION":82.9637,"RA_OF_ASC_NODE":326.0894,"ARG_OF_PERICENTER":59.4661,"MEAN_ANOMALY":55.6131,"EPHEMERIS_TYPE":0,"CLASSIFICATION_TYPE":"U","NORAD_CAT_ID":36519,"ELEMENT_SET_NO":999,"REV_AT_EPOCH":79368,"BSTAR":7.2600485e-5,"MEAN_MOTION_DOT":8.1e-7,"MEAN_MOTION_DDOT":0}]
