COSMOS 2361             
1 25590U 98076A   26064.32987594  .00000078  00000+0  68008-4 0  9996
2 25590  82.9311 283.0154 0032295  37.9455 135.6271 13.73227007362440
COSMOS 2378             
1 26818U 01023A   26064.17527946  .00000081  00000+0  70256-4 0  9992
2 26818  82.9258 298.6155 0032588 339.7605 136.4451 13.74150627240552
COSMOS 2389             
1 27436U 02026A   26064.22996855  .00000063  00000+0  49665-4 0  9998
2 27436  82.9466 245.9172 0046156 188.1875 345.7746 13.75163971192820
COSMOS 2398             
1 27818U 03023A   26063.50925808  .00000056  00000+0  45366-4 0  9996
2 27818  82.9484 212.4348 0030239 244.6243 182.0487 13.72394835139388
COSMOS 2407             
1 28380U 04028A   26064.24437517  .00000093  00000+0  79092-4 0  9998
2 28380  82.9638 151.8163 0039372 181.1184 196.3762 13.76324457 85584
COSMOS 2414             
1 28521U 05002A   26064.22052811  .00000121  00000+0  88308-4 0  9998
2 28521  82.9490 122.2990 0038683 265.5865  94.0878 13.87914834 69393
COSMOS 2429             
1 32052U 07038A   26064.30320831  .00000074  00000+0  61069-4 0  9994
2 32052  82.9774 282.4561 0038682 163.7014 196.5397 13.75157781927371
COSMOS 2454             
1 35635U 09039A   26064.17418000  .00000088  00000+0  58579-4 0  9995
2 35635  82.9533 106.1577 0018887 192.5025 226.3676 13.89940637842957
COSMOS 2463             
1 36519U 10017A   26064.25404259  .00000081  00000+0  72600-4 0  9999
2 36519  82.9637 326.0894 0037347  59.4661  55.6131 13.71657490793685
